[{"OBJECT_NAME":"HONGHU 2","OBJECT_ID":"2023-193C","EPOCH":"2026-03-09T23:21:07.139520","MEAN_MOTION":15.21543878,"ECCENTRICITY":0.00399876,"INCLINATION":97.2779,"RA_OF_ASC_NODE":62.3901,"ARG_OF_PERICENTER":264.1736,"MEAN_ANOMALY":95.4941,"EPHEMERIS_TYPE":0,"CLASSIFICATION_TYPE":"U","NORAD_CAT_ID":58555,"ELEMENT_SET_NO":999,"REV_AT_EPOCH":8691,"BSTAR":0.0061775359,"MEAN_MOTION_DOT":0.00144707,"MEAN_MOTION_DDOT":0},{"OBJECT_NAME":"STARLINK-33928","OBJECT_ID":"2025-101K","EPOCH":"2026-03-09T03:03:54.342720","MEAN_MOTION":15.27605382,"ECCENTRICITY":0.00010088,"INCLINATION":43.001,"RA_OF_ASC_NODE":0.7654,"ARG_OF_PERICENTER":269.0947,"MEAN_ANOMALY":90.9789,"EPHEMERIS_TYPE":0,"CLASSIFICATION_TYPE":"U","NORAD_CAT_ID":64003,"ELEMENT_SET_NO":999,"REV_AT_EPOCH":4697,"BSTAR":0.00073480393,"MEAN_MOTION_DOT":0.00020029,"MEAN_MOTION_DDOT":0}]
